QIANFAN-147             
1 69106U 26108C   26159.21189964  .00000275  00000+0  12938-3 0  9991
2 69106  89.0118  23.2160 0015801 139.4675 220.7693 14.17034146  3075
QIANFAN-148             
1 69107U 26108D   26159.27612411  .00000274  00000+0  12803-3 0  9996
2 69107  89.0118  23.2074 0016319 144.0701 216.1589 14.17403274  3083
QIANFAN-149             
1 69108U 26108E   26159.27293967  .00000279  00000+0  12957-3 0  9993
2 69108  89.0121  23.2074 0015963 143.3380 216.8904 14.17857857  3085
QIANFAN-150             
1 69109U 26108F   26159.26417203  .00000275  00000+0  12663-3 0  9994
2 69109  89.0122  23.2062 0015999 145.0522 215.1720 14.18306287  3085
QIANFAN-151             
1 69110U 26108G   26159.25811640  .00000291  00000+0  13283-3 0  9995
2 69110  89.0121  23.2051 0016112 143.6487 216.5800 14.18802015  3080
QIANFAN-152             
1 69111U 26108H   26159.25277918  .00000279  00000+0  12552-3 0  9994
2 69111  89.0120  23.2041 0015310 143.5644 216.6591 14.19419232  3086
QIANFAN-153             
1 69112U 26108J   26159.24748563  .00000272  00000+0  12203-3 0  9999
2 69112  89.0117  23.2029 0016511 143.5220 216.7099 14.19642389  3088
QIANFAN-154             
1 69113U 26108K   26159.24025837  .00000277  00000+0  12301-3 0  9996
2 69113  89.0122  23.2027 0016181 141.4850 218.7498 14.20190483  3082
QIANFAN-155             
1 69114U 26108L   26159.24374789  .00000288  00000+0  12945-3 0  9996
2 69114  89.0122  23.2032 0016889 141.7912 218.4478 14.19535907  3083
QIANFAN-156             
1 69115U 26108M   26159.23484252  .00000285  00000+0  12481-3 0  9995
2 69115  89.0125  23.2024 0016526 143.0142 217.2192 14.20958347  3085
QIANFAN-157             
1 69116U 26108N   26157.30898275  .00000375  00000+0  15436-3 0  9999
2 69116  89.0123  23.4118 0016590 153.6669 206.5371 14.24908081  2816
QIANFAN-158             
1 69117U 26108P   26159.22766128  .00000299  00000+0  12885-3 0  9994
2 69117  89.0120  23.2005 0016461 144.3217 215.9078 14.21847849  3089
QIANFAN-159             
1 69118U 26108Q   26159.22324893  .00000306  00000+0  13126-3 0  9992
2 69118  89.0119  23.1997 0016179 144.1891 216.0389 14.22294214  3089
QIANFAN-160             
1 69119U 26108R   26159.21961057  .00000304  00000+0  12931-3 0  9992
2 69119  89.0121  23.1996 0015890 144.0111 216.2154 14.22718646  3087
QIANFAN-161             
1 69120U 26108S   26159.21568778  .00000300  00000+0  12625-3 0  9993
2 69120  89.0121  23.1989 0015911 144.7832 215.4415 14.23189518  3084
QIANFAN-162             
1 69121U 26108T   26159.21317861  .00000311  00000+0  12985-3 0  9990
2 69121  89.0121  23.1985 0015748 145.9547 214.2659 14.23624995  3085
SMILE                   
1 69123U 26109A   26144.65318427 -.00001976  00000+0 -42379-3 0  9994
2 69123  70.0007 229.2745 0009123 259.5159 100.4951 14.57062785   802
STARLINK-37726          
1 69124U 26110A   26159.25004630  .00006470  00000+0  12060-3 0  9993
2 69124  97.2853 355.3870 0001554  87.0310 246.2201 15.49171744  4221
STARLINK-37722          
1 69125U 26110B   26159.25004630 -.02472161  00000+0 -41120-1 0  9999
2 69125  97.2848 355.5445 0001709 100.9817 236.7236 15.55834412  4277
STARLINK-37715          
1 69126U 26110C   26159.25004630 -.02606439  00000+0 -30137-1 0  9993
2 69126  97.2851 355.6014 0002034  82.0240  39.3053 15.65448864  4229
STARLINK-37706          
1 69127U 26110D   26159.25004630 -.02607495  00000+0 -29720-1 0  9993
2 69127  97.2853 355.6050 0002120  83.1610  45.7908 15.65805690  4225
STARLINK-37723          
1 69128U 26110E   26159.25004630 -.02621686  00000+0 -29441-1 0  9992
2 69128  97.2852 355.6090 0002080  85.5069  51.9100 15.66194644  4222
STARLINK-37720          
1 69129U 26110F   26159.25004630  .00004870  00000+0  91186-4 0  9997
2 69129  97.2858 355.4074 0001867  90.4831 291.7141 15.49180443  4225
STARLINK-37533          
1 69130U 26110G   26156.86930582 -.00053675  00000+0 -28200-3 0  9992
2 69130  97.2839 353.1262 0001606  86.5092 273.6360 15.80753113  3851
STARLINK-37530          
1 69131U 26110H   26156.93185300  .00052184  00000+0  27125-3 0  9998
2 69131  97.2840 353.1944 0000830  62.1150 298.0203 15.80840143  3862
STARLINK-37660          
1 69132U 26110J   26159.25004630 -.01925545  00000+0 -27663-1 0  9991
2 69132  97.2849 355.5670 0001425  86.5139 305.7008 15.59396730  4226
STARLINK-37633          
1 69133U 26110K   26159.25004630 -.01255908  00000+0 -17106-1 0  9992
2 69133  97.2847 355.5728 0001450  70.6243 343.6296 15.60456494  4223
STARLINK-37361          
1 69134U 26110L   26159.25004630 -.02646183  00000+0 -26858-1 0  9997
2 69134  97.2852 355.6319 0002068  92.0988  96.7420 15.68702792  4225
STARLINK-37372          
1 69135U 26110M   26159.25004630 -.02572652  00000+0 -37541-1 0  9998
2 69135  97.2846 355.5944 0001636  70.2642  23.1686 15.59469481  4220
