OBJECT_NAME,OBJECT_ID,EPOCH,MEAN_MOTION,ECCENTRICITY,INCLINATION,RA_OF_ASC_NODE,ARG_OF_PERICENTER,MEAN_ANOMALY,EPHEMERIS_TYPE,CLASSIFICATION_TYPE,NORAD_CAT_ID,ELEMENT_SET_NO,REV_AT_EPOCH,BSTAR,MEAN_MOTION_DOT,MEAN_MOTION_DDOT
QIANFAN-147,2026-108C,2026-06-08T05:05:08.128896,14.17034146,.00158017,89.0118,23.2160,139.4675,220.7693,0,U,69106,999,307,.12938233E-3,.275E-5,0
QIANFAN-148,2026-108D,2026-06-08T06:37:37.123104,14.17403274,.00163194,89.0118,23.2074,144.0701,216.1589,0,U,69107,999,308,.12803071E-3,.274E-5,0
QIANFAN-149,2026-108E,2026-06-08T06:33:01.987488,14.17857857,.00159636,89.0121,23.2074,143.3380,216.8904,0,U,69108,999,308,.12956944E-3,.279E-5,0
QIANFAN-150,2026-108F,2026-06-08T06:20:24.463392,14.18306287,.0015999,89.0122,23.2062,145.0522,215.1720,0,U,69109,999,308,.12663143E-3,.275E-5,0
QIANFAN-151,2026-108G,2026-06-08T06:11:41.256960,14.18802015,.00161128,89.0121,23.2051,143.6487,216.5800,0,U,69110,999,308,.13282943E-3,.291E-5,0
QIANFAN-152,2026-108H,2026-06-08T06:04:00.121152,14.19419232,.00153108,89.0120,23.2041,143.5644,216.6591,0,U,69111,999,308,.1255217E-3,.279E-5,0
QIANFAN-153,2026-108J,2026-06-08T05:56:22.758432,14.19642389,.00165114,89.0117,23.2029,143.5220,216.7099,0,U,69112,999,308,.12202813E-3,.272E-5,0
QIANFAN-154,2026-108K,2026-06-08T05:45:58.323168,14.20190483,.00161812,89.0122,23.2027,141.4850,218.7498,0,U,69113,999,308,.12301401E-3,.277E-5,0
QIANFAN-155,2026-108L,2026-06-08T05:50:59.817696,14.19535907,.00168896,89.0122,23.2032,141.7912,218.4478,0,U,69114,999,308,.129454E-3,.288E-5,0
QIANFAN-156,2026-108M,2026-06-08T05:38:10.393728,14.20958347,.00165264,89.0125,23.2024,143.0142,217.2192,0,U,69115,999,308,.12481171E-3,.285E-5,0
QIANFAN-157,2026-108N,2026-06-06T07:24:56.109600,14.24908081,.00165908,89.0123,23.4118,153.6669,206.5371,0,U,69116,999,281,.15435736E-3,.375E-5,0
QIANFAN-158,2026-108P,2026-06-08T05:27:49.934592,14.21847849,.00164614,89.0120,23.2005,144.3217,215.9078,0,U,69117,999,308,.12884986E-3,.299E-5,0
QIANFAN-159,2026-108Q,2026-06-08T05:21:28.707552,14.22294214,.00161794,89.0119,23.1997,144.1891,216.0389,0,U,69118,999,308,.13125972E-3,.306E-5,0
QIANFAN-160,2026-108R,2026-06-08T05:16:14.353248,14.22718646,.00158902,89.0121,23.1996,144.0111,216.2154,0,U,69119,999,308,.12931363E-3,.304E-5,0
QIANFAN-161,2026-108S,2026-06-08T05:10:35.424192,14.23189518,.00159115,89.0121,23.1989,144.7832,215.4415,0,U,69120,999,308,.12625166E-3,.3E-5,0
QIANFAN-162,2026-108T,2026-06-08T05:06:58.631904,14.23624995,.00157482,89.0121,23.1985,145.9547,214.2659,0,U,69121,999,308,.12984949E-3,.311E-5,0
SMILE,2026-109A,2026-05-24T15:40:35.120928,14.57062785,.00091232,70.0007,229.2745,259.5159,100.4951,0,U,69123,999,80,-.42378883E-3,-.1976E-4,0
STARLINK-37726,2026-110A,2026-06-08T06:00:04.000320,15.49171744,.00015546,97.2853,355.3870,87.0310,246.2201,0,U,69124,999,422,.12060294E-3,.647E-4,0
STARLINK-37722,2026-110B,2026-06-08T06:00:04.000320,15.55834412,.00017098,97.2848,355.5445,100.9817,236.7236,0,U,69125,999,427,-.41120064E-1,-.2472161E-1,0
STARLINK-37715,2026-110C,2026-06-08T06:00:04.000320,15.65448864,.00020341,97.2851,355.6014,82.0240,39.3053,0,U,69126,999,422,-.30137202E-1,-.2606439E-1,0
STARLINK-37706,2026-110D,2026-06-08T06:00:04.000320,15.65805690,.00021206,97.2853,355.6050,83.1610,45.7908,0,U,69127,999,422,-.29719728E-1,-.2607495E-1,0
STARLINK-37723,2026-110E,2026-06-08T06:00:04.000320,15.66194644,.00020804,97.2852,355.6090,85.5069,51.9100,0,U,69128,999,422,-.29441436E-1,-.2621686E-1,0
STARLINK-37720,2026-110F,2026-06-08T06:00:04.000320,15.49180443,.00018675,97.2858,355.4074,90.4831,291.7141,0,U,69129,999,422,.91185859E-4,.487E-4,0
STARLINK-37533,2026-110G,2026-06-05T20:51:48.022848,15.80753113,.00016063,97.2839,353.1262,86.5092,273.6360,0,U,69130,999,385,-.28200148E-3,-.53675E-3,0
STARLINK-37530,2026-110H,2026-06-05T22:21:52.099200,15.80840143,.000083,97.2840,353.1944,62.1150,298.0203,0,U,69131,999,386,.27125343E-3,.52184E-3,0
STARLINK-37660,2026-110J,2026-06-08T06:00:04.000320,15.59396730,.00014251,97.2849,355.5670,86.5139,305.7008,0,U,69132,999,422,-.27662639E-1,-.1925545E-1,0
STARLINK-37633,2026-110K,2026-06-08T06:00:04.000320,15.60456494,.00014507,97.2847,355.5728,70.6243,343.6296,0,U,69133,999,422,-.17105899E-1,-.1255908E-1,0
STARLINK-37361,2026-110L,2026-06-08T06:00:04.000320,15.68702792,.00020689,97.2852,355.6319,92.0988,96.7420,0,U,69134,999,422,-.2685803E-1,-.2646183E-1,0
STARLINK-37372,2026-110M,2026-06-08T06:00:04.000320,15.59469481,.0001636,97.2846,355.5944,70.2642,23.1686,0,U,69135,999,422,-.37540964E-1,-.2572652E-1,0
